[{"OBJECT_NAME":"STARLINK-4561","OBJECT_ID":"2022-101AN","EPOCH":"2026-03-20T11:56:29.956416","MEAN_MOTION":15.08858193,"ECCENTRICITY":0.0001492,"INCLINATION":53.2194,"RA_OF_ASC_NODE":5.8265,"ARG_OF_PERICENTER":75.8945,"MEAN_ANOMALY":284.2213,"EPHEMERIS_TYPE":0,"CLASSIFICATION_TYPE":"U","NORAD_CAT_ID":53563,"ELEMENT_SET_NO":999,"REV_AT_EPOCH":19807,"BSTAR":0.00010889,"MEAN_MOTION_DOT":1.446e-5,"MEAN_MOTION_DDOT":0},{"OBJECT_NAME":"STARLINK-4577","OBJECT_ID":"2022-101AP","EPOCH":"2026-03-20T11:35:18.216672","MEAN_MOTION":15.08845898,"ECCENTRICITY":0.0001784,"INCLINATION":53.2197,"RA_OF_ASC_NODE":5.7332,"ARG_OF_PERICENTER":78.5466,"MEAN_ANOMALY":281.5726,"EPHEMERIS_TYPE":0,"CLASSIFICATION_TYPE":"U","NORAD_CAT_ID":53564,"ELEMENT_SET_NO":999,"REV_AT_EPOCH":19807,"BSTAR":-3.8534e-5,"MEAN_MOTION_DOT":-9.01e-6,"MEAN_MOTION_DDOT":0},{"OBJECT_NAME":"STARLINK-4575","OBJECT_ID":"2022-101AQ","EPOCH":"2026-03-20T11:47:17.476800","MEAN_MOTION":15.08837752,"ECCENTRICITY":0.0001371,"INCLINATION":53.2182,"RA_OF_ASC_NODE":5.7838,"ARG_OF_PERICENTER":88.5819,"MEAN_ANOMALY":271.533,"EPHEMERIS_TYPE":0,"CLASSIFICATION_TYPE":"U","NORAD_CAT_ID":53565,"ELEMENT_SET_NO":999,"REV_AT_EPOCH":19873,"BSTAR":-1.4204e-5,"MEAN_MOTION_DOT":-5.14e-6,"MEAN_MOTION_DDOT":0},{"OBJECT_NAME":"STARLINK-4576","OBJECT_ID":"2022-101AR","EPOCH":"2026-03-20T05:03:08.594496","MEAN_MOTION":15.08835483,"ECCENTRICITY":0.0001285,"INCLINATION":53.2191,"RA_OF_ASC_NODE":6.8782,"ARG_OF_PERICENTER":86.0874,"MEAN_ANOMALY":274.0265,"EPHEMERIS_TYPE":0,"CLASSIFICATION_TYPE":"U","NORAD_CAT_ID":53566,"ELEMENT_SET_NO":999,"REV_AT_EPOCH":19872,"BSTAR":6.4578e-5,"MEAN_MOTION_DOT":7.4e-6,"MEAN_MOTION_DDOT":0},{"OBJECT_NAME":"STARLINK-4585","OBJECT_ID":"2022-101AS","EPOCH":"2026-03-20T11:40:36.253344","MEAN_MOTION":15.08840904,"ECCENTRICITY":0.0001299,"INCLINATION":53.2186,"RA_OF_ASC_NODE":5.755,"ARG_OF_PERICENTER":82.8633,"MEAN_ANOMALY":277.2507,"EPHEMERIS_TYPE":0,"CLASSIFICATION_TYPE":"U","NORAD_CAT_ID":53567,"ELEMENT_SET_NO":999,"REV_AT_EPOCH":19807,"BSTAR":-2.3269e-5,"MEAN_MOTION_DOT":-6.58e-6,"MEAN_MOTION_DDOT":0},{"OBJECT_NAME":"STARLINK-4583","OBJECT_ID":"2022-101AT","EPOCH":"2026-03-20T12:44:09.696192","MEAN_MOTION":15.08832618,"ECCENTRICITY":0.0001419,"INCLINATION":53.2191,"RA_OF_ASC_NODE":5.3286,"ARG_OF_PERICENTER":79.2731,"MEAN_ANOMALY":280.8421,"EPHEMERIS_TYPE":0,"CLASSIFICATION_TYPE":"U","NORAD_CAT_ID":53568,"ELEMENT_SET_NO":999,"REV_AT_EPOCH":19877,"BSTAR":-0.00024082,"MEAN_MOTION_DOT":-4.118e-5,"MEAN_MOTION_DDOT":0},{"OBJECT_NAME":"STARLINK-4582","OBJECT_ID":"2022-101AU","EPOCH":"2026-03-20T05:08:28.694400","MEAN_MOTION":15.08830867,"ECCENTRICITY":0.0001709,"INCLINATION":53.2182,"RA_OF_ASC_NODE":6.8994,"ARG_OF_PERICENTER":79.0619,"MEAN_ANOMALY":281.0566,"EPHEMERIS_TYPE":0,"CLASSIFICATION_TYPE":"U","NORAD_CAT_ID":53569,"ELEMENT_SET_NO":999,"REV_AT_EPOCH":19870,"BSTAR":-3.5874e-5,"MEAN_MOTION_DOT":-8.59e-6,"MEAN_MOTION_DDOT":0},{"OBJECT_NAME":"STARLINK-4550","OBJECT_ID":"2022-101AV","EPOCH":"2026-03-20T04:52:31.843776","MEAN_MOTION":15.08842387,"ECCENTRICITY":0.00016631,"INCLINATION":53.2183,"RA_OF_ASC_NODE":6.8335,"ARG_OF_PERICENTER":88.6964,"MEAN_ANOMALY":271.4219,"EPHEMERIS_TYPE":0,"CLASSIFICATION_TYPE":"U","NORAD_CAT_ID":53570,"ELEMENT_SET_NO":999,"REV_AT_EPOCH":19872,"BSTAR":-1.710787e-5,"MEAN_MOTION_DOT":-5.6e-6,"MEAN_MOTION_DDOT":0},{"OBJECT_NAME":"STARLINK-4584","OBJECT_ID":"2022-101AW","EPOCH":"2026-03-20T01:47:04.303104","MEAN_MOTION":15.08849049,"ECCENTRICITY":0.0001699,"INCLINATION":53.2194,"RA_OF_ASC_NODE":7.4481,"ARG_OF_PERICENTER":120.1222,"MEAN_ANOMALY":239.9939,"EPHEMERIS_TYPE":0,"CLASSIFICATION_TYPE":"U","NORAD_CAT_ID":53571,"ELEMENT_SET_NO":999,"REV_AT_EPOCH":19870,"BSTAR":-9.3668e-5,"MEAN_MOTION_DOT":-1.779e-5,"MEAN_MOTION_DDOT":0},{"OBJECT_NAME":"STARLINK-4555","OBJECT_ID":"2022-101AX","EPOCH":"2026-03-20T12:17:38.060448","MEAN_MOTION":15.08830992,"ECCENTRICITY":0.0001211,"INCLINATION":53.2187,"RA_OF_ASC_NODE":5.2118,"ARG_OF_PERICENTER":80.9276,"MEAN_ANOMALY":279.1853,"EPHEMERIS_TYPE":0,"CLASSIFICATION_TYPE":"U","NORAD_CAT_ID":53572,"ELEMENT_SET_NO":999,"REV_AT_EPOCH":19808,"BSTAR":0.00014004,"MEAN_MOTION_DOT":1.941e-5,"MEAN_MOTION_DDOT":0},{"OBJECT_NAME":"STARLINK-4559","OBJECT_ID":"2022-101AZ","EPOCH":"2026-03-20T12:22:56.321760","MEAN_MOTION":15.08830878,"ECCENTRICITY":0.0001378,"INCLINATION":53.2204,"RA_OF_ASC_NODE":5.2328,"ARG_OF_PERICENTER":94.4367,"MEAN_ANOMALY":265.6783,"EPHEMERIS_TYPE":0,"CLASSIFICATION_TYPE":"U","NORAD_CAT_ID":53574,"ELEMENT_SET_NO":999,"REV_AT_EPOCH":19808,"BSTAR":0.00017216,"MEAN_MOTION_DOT":2.452e-5,"MEAN_MOTION_DDOT":0},{"OBJECT_NAME":"STARLINK-4551","OBJECT_ID":"2022-101BA","EPOCH":"2026-03-20T12:33:34.518816","MEAN_MOTION":15.08830933,"ECCENTRICITY":0.0001558,"INCLINATION":53.2192,"RA_OF_ASC_NODE":5.2787,"ARG_OF_PERICENTER":86.0181,"MEAN_ANOMALY":274.0989,"EPHEMERIS_TYPE":0,"CLASSIFICATION_TYPE":"U","NORAD_CAT_ID":53575,"ELEMENT_SET_NO":999,"REV_AT_EPOCH":19877,"BSTAR":-3.3423e-5,"MEAN_MOTION_DOT":-8.2e-6,"MEAN_MOTION_DDOT":0},{"OBJECT_NAME":"STARLINK-4581","OBJECT_ID":"2022-101BB","EPOCH":"2026-03-20T12:34:55.534368","MEAN_MOTION":15.08837507,"ECCENTRICITY":0.0001607,"INCLINATION":53.2209,"RA_OF_ASC_NODE":5.2813,"ARG_OF_PERICENTER":84.6318,"MEAN_ANOMALY":275.4857,"EPHEMERIS_TYPE":0,"CLASSIFICATION_TYPE":"U","NORAD_CAT_ID":53576,"ELEMENT_SET_NO":999,"REV_AT_EPOCH":19890,"BSTAR":5.3823e-5,"MEAN_MOTION_DOT":5.69e-6,"MEAN_MOTION_DDOT":0},{"OBJECT_NAME":"STARLINK-4553","OBJECT_ID":"2022-101BC","EPOCH":"2026-03-20T12:28:14.510496","MEAN_MOTION":15.08836766,"ECCENTRICITY":0.0001476,"INCLINATION":53.2192,"RA_OF_ASC_NODE":5.2522,"ARG_OF_PERICENTER":76.5461,"MEAN_ANOMALY":283.5695,"EPHEMERIS_TYPE":0,"CLASSIFICATION_TYPE":"U","NORAD_CAT_ID":53577,"ELEMENT_SET_NO":999,"REV_AT_EPOCH":19890,"BSTAR":3.9399e-5,"MEAN_MOTION_DOT":3.39e-6,"MEAN_MOTION_DDOT":0},{"OBJECT_NAME":"STARLINK-4556","OBJECT_ID":"2022-101BD","EPOCH":"2026-03-20T12:12:19.474272","MEAN_MOTION":15.08838449,"ECCENTRICITY":0.000137,"INCLINATION":53.2191,"RA_OF_ASC_NODE":5.1888,"ARG_OF_PERICENTER":88.569,"MEAN_ANOMALY":271.5459,"EPHEMERIS_TYPE":0,"CLASSIFICATION_TYPE":"U","NORAD_CAT_ID":53578,"ELEMENT_SET_NO":999,"REV_AT_EPOCH":19808,"BSTAR":1.7918e-5,"MEAN_MOTION_DOT":-3.0e-8,"MEAN_MOTION_DDOT":0},{"OBJECT_NAME":"STARLINK-4580","OBJECT_ID":"2022-101BE","EPOCH":"2026-03-20T12:07:01.123104","MEAN_MOTION":15.08836972,"ECCENTRICITY":0.0001431,"INCLINATION":53.2195,"RA_OF_ASC_NODE":5.1624,"ARG_OF_PERICENTER":98.0155,"MEAN_ANOMALY":262.0999,"EPHEMERIS_TYPE":0,"CLASSIFICATION_TYPE":"U","NORAD_CAT_ID":53579,"ELEMENT_SET_NO":999,"REV_AT_EPOCH":19808,"BSTAR":0.00012849,"MEAN_MOTION_DOT":1.757e-5,"MEAN_MOTION_DDOT":0},{"OBJECT_NAME":"STARLINK-4691","OBJECT_ID":"2022-104A","EPOCH":"2026-03-20T08:52:23.314656","MEAN_MOTION":15.08838127,"ECCENTRICITY":0.0001233,"INCLINATION":53.2188,"RA_OF_ASC_NODE":196.4267,"ARG_OF_PERICENTER":90.8911,"MEAN_ANOMALY":269.2222,"EPHEMERIS_TYPE":0,"CLASSIFICATION_TYPE":"U","NORAD_CAT_ID":53588,"ELEMENT_SET_NO":999,"REV_AT_EPOCH":19770,"BSTAR":6.526e-5,"MEAN_MOTION_DOT":7.51e-6,"MEAN_MOTION_DDOT":0}]
