STARLINK-4561           
1 53563U 22101AN  26079.49756894  .00001446  00000+0  10889-3 0  9997
2 53563  53.2194   5.8265 0001492  75.8945 284.2213 15.08858193198073
STARLINK-4577           
1 53564U 22101AP  26079.48284973 -.00000901  00000+0 -38534-4 0  9996
2 53564  53.2197   5.7332 0001784  78.5466 281.5726 15.08845898198070
STARLINK-4575           
1 53565U 22101AQ  26079.49117450 -.00000514  00000+0 -14204-4 0  9991
2 53565  53.2182   5.7838 0001371  88.5819 271.5330 15.08837752198734
STARLINK-4576           
1 53566U 22101AR  26079.21051614  .00000740  00000+0  64578-4 0  9999
2 53566  53.2191   6.8782 0001285  86.0874 274.0265 15.08835483198726
STARLINK-4585           
1 53567U 22101AS  26079.48653071 -.00000658  00000+0 -23269-4 0  9996
2 53567  53.2186   5.7550 0001299  82.8633 277.2507 15.08840904198070
STARLINK-4583           
1 53568U 22101AT  26079.53066778 -.00004118  00000+0 -24082-3 0  9993
2 53568  53.2191   5.3286 0001419  79.2731 280.8421 15.08832618198777
STARLINK-4582           
1 53569U 22101AU  26079.21422100 -.00000859  00000+0 -35874-4 0  9994
2 53569  53.2182   6.8994 0001709  79.0619 281.0566 15.08830867198705
STARLINK-4550           
1 53570U 22101AV  26079.20314634 -.00000560  00000+0 -17108-4 0  9996
2 53570  53.2183   6.8335 0001663  88.6964 271.4219 15.08842387198725
STARLINK-4584           
1 53571U 22101AW  26079.07435536 -.00001779  00000+0 -93668-4 0  9995
2 53571  53.2194   7.4481 0001699 120.1222 239.9939 15.08849049198703
STARLINK-4555           
1 53572U 22101AX  26079.51224607  .00001941  00000+0  14004-3 0  9995
2 53572  53.2187   5.2118 0001211  80.9276 279.1853 15.08830992198080
STARLINK-4559           
1 53574U 22101AZ  26079.51592965  .00002452  00000+0  17216-3 0  9998
2 53574  53.2204   5.2328 0001378  94.4367 265.6783 15.08830878198085
STARLINK-4551           
1 53575U 22101BA  26079.52331619 -.00000820  00000+0 -33423-4 0  9995
2 53575  53.2192   5.2787 0001558  86.0181 274.0989 15.08830933198772
STARLINK-4581           
1 53576U 22101BB  26079.52425387  .00000569  00000+0  53823-4 0  9996
2 53576  53.2209   5.2813 0001607  84.6318 275.4857 15.08837507198901
STARLINK-4553           
1 53577U 22101BC  26079.51961239  .00000339  00000+0  39399-4 0  9994
2 53577  53.2192   5.2522 0001476  76.5461 283.5695 15.08836766198909
STARLINK-4556           
1 53578U 22101BD  26079.50855873 -.00000003  00000+0  17918-4 0  9992
2 53578  53.2191   5.1888 0001370  88.5690 271.5459 15.08838449198087
STARLINK-4580           
1 53579U 22101BE  26079.50487411  .00001757  00000+0  12849-3 0  9995
2 53579  53.2195   5.1624 0001431  98.0155 262.0999 15.08836972198083
STARLINK-4691           
1 53588U 22104A   26079.36971429  .00000751  00000+0  65260-4 0  9998
2 53588  53.2188 196.4267 0001233  90.8911 269.2222 15.08838127197702
